{
    "links": {
        "self": "http://www.neowsapp.com/rest/v1/neo/3789693?api_key=iIulBulltgU6a56xZRHN4H3l9WmuAYTsLGpBGhQ2"
    },
    "id": "3789693",
    "neo_reference_id": "3789693",
    "name": "(2017 WQ15)",
    "designation": "2017 WQ15",
    "nasa_jpl_url": "http://ssd.jpl.nasa.gov/sbdb.cgi?sstr=3789693",
    "absolute_magnitude_h": 24.8,
    "estimated_diameter": {
        "kilometers": {
            "estimated_diameter_min": 0.0291443905,
            "estimated_diameter_max": 0.0651688382
        },
        "meters": {
            "estimated_diameter_min": 29.1443904535,
            "estimated_diameter_max": 65.1688382168
        },
        "miles": {
            "estimated_diameter_min": 0.018109479,
            "estimated_diameter_max": 0.0404940262
        },
        "feet": {
            "estimated_diameter_min": 95.6180819754,
            "estimated_diameter_max": 213.8085311752
        }
    },
    "is_potentially_hazardous_asteroid": false,
    "close_approach_data": [
        {
            "close_approach_date": "2017-10-29",
            "close_approach_date_full": "2017-Oct-29 12:56",
            "epoch_date_close_approach": 1509281760000,
            "relative_velocity": {
                "kilometers_per_second": "5.1129742932",
                "kilometers_per_hour": "18406.7074556408",
                "miles_per_hour": "11437.2121965342"
            },
            "miss_distance": {
                "astronomical": "0.1029362494",
                "lunar": "40.0422010166",
                "kilometers": "15399043.656028778",
                "miles": "9568522.0295940164"
            },
            "orbiting_body": "Earth"
        }
    ],
    "orbital_data": {
        "orbit_id": "1",
        "orbit_determination_date": "2017-11-27 05:37:36",
        "first_observation_date": "2017-11-24",
        "last_observation_date": "2017-11-26",
        "data_arc_in_days": 2,
        "observations_used": 11,
        "orbit_uncertainty": "9",
        "minimum_orbit_intersection": ".102768",
        "jupiter_tisserand_invariant": "3.519",
        "epoch_osculation": "2458082.5",
        "eccentricity": ".5007771444318132",
        "semi_major_axis": "2.164230606665668",
        "inclination": "2.984995621744329",
        "ascending_node_longitude": "128.2162716233383",
        "orbital_period": "1162.930413960317",
        "perihelion_distance": "1.080433383567704",
        "perihelion_argument": "270.7783822107014",
        "aphelion_distance": "3.248027829763632",
        "perihelion_time": "2458058.626825530028",
        "mean_anomaly": "7.390246833361425",
        "mean_motion": ".3095628041698843",
        "equinox": "J2000",
        "orbit_class": {
            "orbit_class_type": "AMO",
            "orbit_class_description": "Near-Earth asteroid orbits similar to that of 1221 Amor",
            "orbit_class_range": "1.017 AU < q (perihelion) < 1.3 AU"
        }
    },
    "is_sentry_object": false
}